{"type": "FeatureCollection", "features": [ {"type": "Feature", "properties": {"norad_id": 36402, "name": "COSMOS 2460 (732)", "group": "gnss", "lat": -10.212024818246208, "lon": 145.37477788212797, "alt_km": 19130.590725078906, "timestamp": "2025-12-15T10:55:21.384010+00:00", "meta": {"OBJECT_NAME": "COSMOS 2460 (732)", "OBJECT_ID": "2010-007C", "EPOCH": "2025-12-13T13:53:49.157952", "MEAN_MOTION": 2.13106108, "ECCENTRICITY": 0.00026771, "INCLINATION": 65.5289, "RA_OF_ASC_NODE": 320.7443, "ARG_OF_PERICENTER": 274.1475, "MEAN_ANOMALY": 277.7778, "EPHEMERIS_TYPE": 0, "CLASSIFICATION_TYPE": "U", "NORAD_CAT_ID": 36402, "ELEMENT_SET_NO": 999, "REV_AT_EPOCH": 12277, "BSTAR": 0, "MEAN_MOTION_DOT": -6.1e-07, "MEAN_MOTION_DDOT": 0}, "tle": {"line1": "1 36402U 10007C   25347.57904118 -.00000061  00000+0  00000+0 0  9995", "line2": "2 36402  65.5289 320.7443 0002677 274.1475 277.7778  2.13106108122773"}}, "geometry": {"type": "Point", "coordinates": [145.37477788212797, -10.212024818246208]}}, {"type": "Feature", "properties": {"norad_id": 36585, "name": "GPS BIIF-1  (PRN 25)", "group": "gnss", "lat": -13.805639813654699, "lon": -154.19708337923151, "alt_km": 20135.11360848256, "timestamp": "2025-12-15T10:55:21.384027+00:00", "meta": {"OBJECT_NAME": "GPS BIIF-1  (PRN 25)", "OBJECT_ID": "2010-022A", "EPOCH": "2025-12-14T05:35:49.434720", "MEAN_MOTION": 2.00553343, "ECCENTRICITY": 0.01261835, "INCLINATION": 54.2999, "RA_OF_ASC_NODE": 216.0137, "ARG_OF_PERICENTER": 65.0918, "MEAN_ANOMALY": 117.1041, "EPHEMERIS_TYPE": 0, "CLASSIFICATION_TYPE": "U", "NORAD_CAT_ID": 36585, "ELEMENT_SET_NO": 999, "REV_AT_EPOCH": 11388, "BSTAR": 0, "MEAN_MOTION_DOT": 4.9e-07, "MEAN_MOTION_DDOT": 0}, "tle": {"line1": "1 36585U 10022A   25348.23321105  .00000049  00000+0  00000+0 0  9992", "line2": "2 36585  54.2999 216.0137 0126183  65.0918 117.1041  2.00553343113888"}}, "geometry": {"type": "Point", "coordinates": [-154.19708337923151, -13.805639813654699]}}, {"type": "Feature", "properties": {"norad_id": 36828, "name": "BEIDOU-2 IGSO-1 (C06)", "group": "gnss", "lat": -9.114658306479791, "lon": -8.748223878736228, "alt_km": 35590.439462859504, "timestamp": "2025-12-15T10:55:21.384039+00:00", "meta": {"OBJECT_NAME": "BEIDOU-2 IGSO-1 (C06)", "OBJECT_ID": "2010-036A", "EPOCH": "2025-12-14T21:38:21.623424", "MEAN_MOTION": 1.00275796, "ECCENTRICITY": 0.00512569, "INCLINATION": 54.2866, "RA_OF_ASC_NODE": 164.6279, "ARG_OF_PERICENTER": 215.8888, "MEAN_ANOMALY": 135.7931, "EPHEMERIS_TYPE": 0, "CLASSIFICATION_TYPE": "U", "NORAD_CAT_ID": 36828, "ELEMENT_SET_NO": 999, "REV_AT_EPOCH": 5624, "BSTAR": 0, "MEAN_MOTION_DOT": -2.4e-07, "MEAN_MOTION_DDOT": 0}, "tle": {"line1": "1 36828U 10036A   25348.90163916 -.00000024  00000+0  00000+0 0  9999", "line2": "2 36828  54.2866 164.6279 0051256 215.8888 135.7931  1.00275796 56247"}}, "geometry": {"type": "Point", "coordinates": [-8.748223878736228, -9.114658306479791]}}, {"type": "Feature", "properties": {"norad_id": 37210, "name": "BEIDOU-2 G4 (C04)", "group": "gnss", "lat": -1.1535233587026008, "lon": 48.36445019140668, "alt_km": 35823.94691120934, "timestamp": "2025-12-15T10:55:21.384052+00:00", "meta": {"OBJECT_NAME": "BEIDOU-2 G4 (C04)", "OBJECT_ID": "2010-057A", "EPOCH": "2025-12-14T21:01:39.976032", "MEAN_MOTION": 1.00271828, "ECCENTRICITY": 0.0010669, "INCLINATION": 3.1901, "RA_OF_ASC_NODE": 69.9323, "ARG_OF_PERICENTER": 191.8324, "MEAN_ANOMALY": 297.5165, "EPHEMERIS_TYPE": 0, "CLASSIFICATION_TYPE": "U", "NORAD_CAT_ID": 37210, "ELEMENT_SET_NO": 999, "REV_AT_EPOCH": 5544, "BSTAR": 0, "MEAN_MOTION_DOT": -9.3e-07, "MEAN_MOTION_DDOT": 0}, "tle": {"line1": "1 37210U 10057A   25348.87615713 -.00000093  00000+0  00000+0 0  9997", "line2": "2 37210   3.1901  69.9323 0010669 191.8324 297.5165  1.00271828 55443"}}, "geometry": {"type": "Point", "coordinates": [48.36445019140668, -1.1535233587026008]}}, {"type": "Feature", "properties": {"norad_id": 37256, "name": "BEIDOU-2 IGSO-2 (C07)", "group": "gnss", "lat": 47.21638873049798, "lon": -8.589132280599506, "alt_km": 35920.988523710155, "timestamp": "2025-12-15T10:55:21.384064+00:00", "meta": {"OBJECT_NAME": "BEIDOU-2 IGSO-2 (C07)", "OBJECT_ID": "2010-068A", "EPOCH": "2025-12-14T17:43:21.584928", "MEAN_MOTION": 1.00286059, "ECCENTRICITY": 0.00486596, "INCLINATION": 47.8819, "RA_OF_ASC_NODE": 274.1236, "ARG_OF_PERICENTER": 216.4437, "MEAN_ANOMALY": 326.6295, "EPHEMERIS_TYPE": 0, "CLASSIFICATION_TYPE": "U", "NORAD_CAT_ID": 37256, "ELEMENT_SET_NO": 999, "REV_AT_EPOCH": 5494, "BSTAR": 0, "MEAN_MOTION_DOT": -2.25e-06, "MEAN_MOTION_DDOT": 0}, "tle": {"line1": "1 37256U 10068A   25348.73844427 -.00000225  00000+0  00000+0 0  9997", "line2": "2 37256  47.8819 274.1236 0048659 216.4437 326.6295  1.00286059 54942"}}, "geometry": {"type": "Point", "coordinates": [-8.589132280599506, 47.21638873049798]}}, {"type": "Feature", "properties": {"norad_id": 37384, "name": "BEIDOU-2 IGSO-3 (C08)", "group": "gnss", "lat": -39.454809469682594, "lon": 16.167626115540234, "alt_km": 35879.89161214646, "timestamp": "2025-12-15T10:55:21.384077+00:00", "meta": {"OBJECT_NAME": "BEIDOU-2 IGSO-3 (C08)", "OBJECT_ID": "2011-013A", "EPOCH": "2025-12-14T15:18:38.168064", "MEAN_MOTION": 1.00270472, "ECCENTRICITY": 0.00354241, "INCLINATION": 62.1463, "RA_OF_ASC_NODE": 41.8972, "ARG_OF_PERICENTER": 187.6123, "MEAN_ANOMALY": 191.2166, "EPHEMERIS_TYPE": 0, "CLASSIFICATION_TYPE": "U", "NORAD_CAT_ID": 37384, "ELEMENT_SET_NO": 999, "REV_AT_EPOCH": 5381, "BSTAR": 0, "MEAN_MOTION_DOT": -1.94e-06, "MEAN_MOTION_DDOT": 0}, "tle": {"line1": "1 37384U 11013A   25348.63794176 -.00000194  00000+0  00000+0 0  9999", "line2": "2 37384  62.1463  41.8972 0035424 187.6123 191.2166  1.00270472 53812"}}, "geometry": {"type": "Point", "coordinates": [16.167626115540234, -39.454809469682594]}}, {"type": "Feature", "properties": {"norad_id": 37605, "name": "GSAT-8 (GAGAN/PRN 127)", "group": "gnss", "lat": -1.059355508415352, "lon": -56.68300232103894, "alt_km": 35756.03092017618, "timestamp": "2025-12-15T10:55:21.384089+00:00", "meta": {"OBJECT_NAME": "GSAT-8 (GAGAN/PRN 127)", "OBJECT_ID": "2011-022A", "EPOCH": "2025-12-14T22:42:38.818368", "MEAN_MOTION": 1.00272348, "ECCENTRICITY": 0.00086342, "INCLINATION": 1.6554, "RA_OF_ASC_NODE": 84.1736, "ARG_OF_PERICENTER": 184.3119, "MEAN_ANOMALY": 211.1142, "EPHEMERIS_TYPE": 0, "CLASSIFICATION_TYPE": "U", "NORAD_CAT_ID": 37605, "ELEMENT_SET_NO": 999, "REV_AT_EPOCH": 5137, "BSTAR": 0, "MEAN_MOTION_DOT": 1.04e-06, "MEAN_MOTION_DDOT": 0}, "tle": {"line1": "1 37605U 11022A   25348.94628262  .00000104  00000+0  00000+0 0  9991", "line2": "2 37605   1.6554  84.1736 0008634 184.3119 211.1142  1.00272348 51376"}}, "geometry": {"type": "Point", "coordinates": [-56.68300232103894, -1.059355508415352]}}, {"type": "Feature", "properties": {"norad_id": 37763, "name": "BEIDOU-2 IGSO-4 (C09)", "group": "gnss", "lat": 4.894485357485854, "lon": -16.18294257128257, "alt_km": 35427.615743164846, "timestamp": "2025-12-15T10:55:21.384102+00:00", "meta": {"OBJECT_NAME": "BEIDOU-2 IGSO-4 (C09)", "OBJECT_ID": "2011-038A", "EPOCH": "2025-12-10T12:04:03.489024", "MEAN_MOTION": 1.00284678, "ECCENTRICITY": 0.01490344, "INCLINATION": 54.5829, "RA_OF_ASC_NODE": 167.3658, "ARG_OF_PERICENTER": 230.2355, "MEAN_ANOMALY": 317.2212, "EPHEMERIS_TYPE": 0, "CLASSIFICATION_TYPE": "U", "NORAD_CAT_ID": 37763, "ELEMENT_SET_NO": 999, "REV_AT_EPOCH": 5275, "BSTAR": 0, "MEAN_MOTION_DOT": 3.6e-07, "MEAN_MOTION_DDOT": 0}, "tle": {"line1": "1 37763U 11038A   25344.50281816  .00000036  00000+0  00000+0 0  9995", "line2": "2 37763  54.5829 167.3658 0149034 230.2355 317.2212  1.00284678 52751"}}, "geometry": {"type": "Point", "coordinates": [-16.18294257128257, 4.894485357485854]}}, {"type": "Feature", "properties": {"norad_id": 37846, "name": "GSAT0101 (GALILEO-PFM)", "group": "gnss", "lat": 41.66188826112455, "lon": 131.4967195487935, "alt_km": 23225.86235720696, "timestamp": "2025-12-15T10:55:21.384116+00:00", "meta": {"OBJECT_NAME": "GSAT0101 (GALILEO-PFM)", "OBJECT_ID": "2011-060A", "EPOCH": "2025-12-12T21:37:17.093856", "MEAN_MOTION": 1.70475751, "ECCENTRICITY": 0.00030259, "INCLINATION": 57.0527, "RA_OF_ASC_NODE": 346.8154, "ARG_OF_PERICENTER": 315.3436, "MEAN_ANOMALY": 44.6506, "EPHEMERIS_TYPE": 0, "CLASSIFICATION_TYPE": "U", "NORAD_CAT_ID": 37846, "ELEMENT_SET_NO": 999, "REV_AT_EPOCH": 8794, "BSTAR": 0, "MEAN_MOTION_DOT": -8.7e-07, "MEAN_MOTION_DDOT": 0}, "tle": {"line1": "1 37846U 11060A   25346.90089229 -.00000087  00000+0  00000+0 0  9999", "line2": "2 37846  57.0527 346.8154 0003025 315.3436  44.6506  1.70475751 87942"}}, "geometry": {"type": "Point", "coordinates": [131.4967195487935, 41.66188826112455]}}, {"type": "Feature", "properties": {"norad_id": 37847, "name": "GSAT0102 (GALILEO-FM2)", "group": "gnss", "lat": 5.843188018471455, "lon": 162.93975107592223, "alt_km": 23232.161293594465, "timestamp": "2025-12-15T10:55:21.384128+00:00", "meta": {"OBJECT_NAME": "GSAT0102 (GALILEO-FM2)", "OBJECT_ID": "2011-060B", "EPOCH": "2025-12-12T05:47:25.345248", "MEAN_MOTION": 1.70475905, "ECCENTRICITY": 0.00049802, "INCLINATION": 57.0536, "RA_OF_ASC_NODE": 346.8337, "ARG_OF_PERICENTER": 309.4177, "MEAN_ANOMALY": 51.2149, "EPHEMERIS_TYPE": 0, "CLASSIFICATION_TYPE": "U", "NORAD_CAT_ID": 37847, "ELEMENT_SET_NO": 999, "REV_AT_EPOCH": 8794, "BSTAR": 0, "MEAN_MOTION_DOT": -8.7e-07, "MEAN_MOTION_DDOT": 0}, "tle": {"line1": "1 37847U 11060B   25346.24126557 -.00000087  00000+0  00000+0 0  9993", "line2": "2 37847  57.0536 346.8337 0004980 309.4177  51.2149  1.70475905 87941"}}, "geometry": {"type": "Point", "coordinates": [162.93975107592223, 5.843188018471455]}}]}